ONEWEB-0202             
1 48224U 21031Q   24109.86293735  .00000192  00000+0  48414-3 0  9991
2 48224  87.8914  86.7772 0002275 108.0965 252.0412 13.14501521144661
ONEWEB-0204             
1 48225U 21031R   24109.97315479 -.00000058  00000+0 -19121-3 0  9990
2 48225  87.8913  86.7676 0002093  74.0114 286.1246 13.14502310144581
ONEWEB-0206             
1 48227U 21031T   24109.99773704  .00000329  00000+0  85391-3 0  9994
2 48227  87.8912  86.7247 0002216  85.2087 274.9296 13.14501912144550
ONEWEB-0182             
1 48228U 21031U   24109.91684895  .00000306  00000+0  79118-3 0  9994
2 48228  87.8915  86.7656 0002013  80.0367 280.0990 13.14501225144744
ONEWEB-0186             
1 48229U 21031V   24109.92796376  .00000310  00000+0  80203-3 0  9996
2 48229  87.8916  86.7272 0001991  87.7709 272.3648 13.14502617144692
ONEWEB-0181             
1 48230U 21031W   24109.90575552  .00000031  00000+0  47914-4 0  9990
2 48230  87.8906  86.8013 0002057  89.8426 270.2939 13.14501702144548
