<?xml version="1.0" encoding="UTF-8"?>
<ndm xmlns:xsi="http://www.w3.org/2001/XMLSchema-instance" xsi:noNamespaceSchemaLocation="https://sanaregistry.org/r/ndmxml_unqualified/ndmxml-2.0.0-master-2.0.xsd">
<omm id="CCSDS_OMM_VERS" version="2.0">
<header><CREATION_DATE/><ORIGINATOR/></header><body><segment><metadata><OBJECT_NAME>ONEWEB-0202</OBJECT_NAME><OBJECT_ID>2021-031Q</OBJECT_ID><CENTER_NAME>EARTH</CENTER_NAME><REF_FRAME>TEME</REF_FRAME><TIME_SYSTEM>UTC</TIME_SYSTEM><MEAN_ELEMENT_THEORY>SGP4</MEAN_ELEMENT_THEORY></metadata><data><meanElements><EPOCH>2024-04-18T20:42:37.787040</EPOCH><MEAN_MOTION>13.14501521</MEAN_MOTION><ECCENTRICITY>.0002275</ECCENTRICITY><INCLINATION>87.8914</INCLINATION><RA_OF_ASC_NODE>86.7772</RA_OF_ASC_NODE><ARG_OF_PERICENTER>108.0965</ARG_OF_PERICENTER><MEAN_ANOMALY>252.0412</MEAN_ANOMALY></meanElements><tleParameters><EPHEMERIS_TYPE>0</EPHEMERIS_TYPE><CLASSIFICATION_TYPE>U</CLASSIFICATION_TYPE><NORAD_CAT_ID>48224</NORAD_CAT_ID><ELEMENT_SET_NO>999</ELEMENT_SET_NO><REV_AT_EPOCH>14466</REV_AT_EPOCH><BSTAR>.48414E-3</BSTAR><MEAN_MOTION_DOT>.192E-5</MEAN_MOTION_DOT><MEAN_MOTION_DDOT>0</MEAN_MOTION_DDOT></tleParameters></data></segment></body></omm>
<omm id="CCSDS_OMM_VERS" version="2.0">
<header><CREATION_DATE/><ORIGINATOR/></header><body><segment><metadata><OBJECT_NAME>ONEWEB-0204</OBJECT_NAME><OBJECT_ID>2021-031R</OBJECT_ID><CENTER_NAME>EARTH</CENTER_NAME><REF_FRAME>TEME</REF_FRAME><TIME_SYSTEM>UTC</TIME_SYSTEM><MEAN_ELEMENT_THEORY>SGP4</MEAN_ELEMENT_THEORY></metadata><data><meanElements><EPOCH>2024-04-18T23:21:20.573856</EPOCH><MEAN_MOTION>13.14502310</MEAN_MOTION><ECCENTRICITY>.0002093</ECCENTRICITY><INCLINATION>87.8913</INCLINATION><RA_OF_ASC_NODE>86.7676</RA_OF_ASC_NODE><ARG_OF_PERICENTER>74.0114</ARG_OF_PERICENTER><MEAN_ANOMALY>286.1246</MEAN_ANOMALY></meanElements><tleParameters><EPHEMERIS_TYPE>0</EPHEMERIS_TYPE><CLASSIFICATION_TYPE>U</CLASSIFICATION_TYPE><NORAD_CAT_ID>48225</NORAD_CAT_ID><ELEMENT_SET_NO>999</ELEMENT_SET_NO><REV_AT_EPOCH>14458</REV_AT_EPOCH><BSTAR>-.19121E-3</BSTAR><MEAN_MOTION_DOT>-.58E-6</MEAN_MOTION_DOT><MEAN_MOTION_DDOT>0</MEAN_MOTION_DDOT></tleParameters></data></segment></body></omm>
<omm id="CCSDS_OMM_VERS" version="2.0">
<header><CREATION_DATE/><ORIGINATOR/></header><body><segment><metadata><OBJECT_NAME>ONEWEB-0206</OBJECT_NAME><OBJECT_ID>2021-031T</OBJECT_ID><CENTER_NAME>EARTH</CENTER_NAME><REF_FRAME>TEME</REF_FRAME><TIME_SYSTEM>UTC</TIME_SYSTEM><MEAN_ELEMENT_THEORY>SGP4</MEAN_ELEMENT_THEORY></metadata><data><meanElements><EPOCH>2024-04-18T23:56:44.480256</EPOCH><MEAN_MOTION>13.14501912</MEAN_MOTION><ECCENTRICITY>.0002216</ECCENTRICITY><INCLINATION>87.8912</INCLINATION><RA_OF_ASC_NODE>86.7247</RA_OF_ASC_NODE><ARG_OF_PERICENTER>85.2087</ARG_OF_PERICENTER><MEAN_ANOMALY>274.9296</MEAN_ANOMALY></meanElements><tleParameters><EPHEMERIS_TYPE>0</EPHEMERIS_TYPE><CLASSIFICATION_TYPE>U</CLASSIFICATION_TYPE><NORAD_CAT_ID>48227</NORAD_CAT_ID><ELEMENT_SET_NO>999</ELEMENT_SET_NO><REV_AT_EPOCH>14455</REV_AT_EPOCH><BSTAR>.85391E-3</BSTAR><MEAN_MOTION_DOT>.329E-5</MEAN_MOTION_DOT><MEAN_MOTION_DDOT>0</MEAN_MOTION_DDOT></tleParameters></data></segment></body></omm>
<omm id="CCSDS_OMM_VERS" version="2.0">
<header><CREATION_DATE/><ORIGINATOR/></header><body><segment><metadata><OBJECT_NAME>ONEWEB-0182</OBJECT_NAME><OBJECT_ID>2021-031U</OBJECT_ID><CENTER_NAME>EARTH</CENTER_NAME><REF_FRAME>TEME</REF_FRAME><TIME_SYSTEM>UTC</TIME_SYSTEM><MEAN_ELEMENT_THEORY>SGP4</MEAN_ELEMENT_THEORY></metadata><data><meanElements><EPOCH>2024-04-18T22:00:15.749280</EPOCH><MEAN_MOTION>13.14501225</MEAN_MOTION><ECCENTRICITY>.0002013</ECCENTRICITY><INCLINATION>87.8915</INCLINATION><RA_OF_ASC_NODE>86.7656</RA_OF_ASC_NODE><ARG_OF_PERICENTER>80.0367</ARG_OF_PERICENTER><MEAN_ANOMALY>280.0990</MEAN_ANOMALY></meanElements><tleParameters><EPHEMERIS_TYPE>0</EPHEMERIS_TYPE><CLASSIFICATION_TYPE>U</CLASSIFICATION_TYPE><NORAD_CAT_ID>48228</NORAD_CAT_ID><ELEMENT_SET_NO>999</ELEMENT_SET_NO><REV_AT_EPOCH>14474</REV_AT_EPOCH><BSTAR>.79118E-3</BSTAR><MEAN_MOTION_DOT>.306E-5</MEAN_MOTION_DOT><MEAN_MOTION_DDOT>0</MEAN_MOTION_DDOT></tleParameters></data></segment></body></omm>
<omm id="CCSDS_OMM_VERS" version="2.0">
<header><CREATION_DATE/><ORIGINATOR/></header><body><segment><metadata><OBJECT_NAME>ONEWEB-0186</OBJECT_NAME><OBJECT_ID>2021-031V</OBJECT_ID><CENTER_NAME>EARTH</CENTER_NAME><REF_FRAME>TEME</REF_FRAME><TIME_SYSTEM>UTC</TIME_SYSTEM><MEAN_ELEMENT_THEORY>SGP4</MEAN_ELEMENT_THEORY></metadata><data><meanElements><EPOCH>2024-04-18T22:16:16.068864</EPOCH><MEAN_MOTION>13.14502617</MEAN_MOTION><ECCENTRICITY>.0001991</ECCENTRICITY><INCLINATION>87.8916</INCLINATION><RA_OF_ASC_NODE>86.7272</RA_OF_ASC_NODE><ARG_OF_PERICENTER>87.7709</ARG_OF_PERICENTER><MEAN_ANOMALY>272.3648</MEAN_ANOMALY></meanElements><tleParameters><EPHEMERIS_TYPE>0</EPHEMERIS_TYPE><CLASSIFICATION_TYPE>U</CLASSIFICATION_TYPE><NORAD_CAT_ID>48229</NORAD_CAT_ID><ELEMENT_SET_NO>999</ELEMENT_SET_NO><REV_AT_EPOCH>14469</REV_AT_EPOCH><BSTAR>.80203E-3</BSTAR><MEAN_MOTION_DOT>.31E-5</MEAN_MOTION_DOT><MEAN_MOTION_DDOT>0</MEAN_MOTION_DDOT></tleParameters></data></segment></body></omm>
<omm id="CCSDS_OMM_VERS" version="2.0">
<header><CREATION_DATE/><ORIGINATOR/></header><body><segment><metadata><OBJECT_NAME>ONEWEB-0181</OBJECT_NAME><OBJECT_ID>2021-031W</OBJECT_ID><CENTER_NAME>EARTH</CENTER_NAME><REF_FRAME>TEME</REF_FRAME><TIME_SYSTEM>UTC</TIME_SYSTEM><MEAN_ELEMENT_THEORY>SGP4</MEAN_ELEMENT_THEORY></metadata><data><meanElements><EPOCH>2024-04-18T21:44:17.276928</EPOCH><MEAN_MOTION>13.14501702</MEAN_MOTION><ECCENTRICITY>.0002057</ECCENTRICITY><INCLINATION>87.8906</INCLINATION><RA_OF_ASC_NODE>86.8013</RA_OF_ASC_NODE><ARG_OF_PERICENTER>89.8426</ARG_OF_PERICENTER><MEAN_ANOMALY>270.2939</MEAN_ANOMALY></meanElements><tleParameters><EPHEMERIS_TYPE>0</EPHEMERIS_TYPE><CLASSIFICATION_TYPE>U</CLASSIFICATION_TYPE><NORAD_CAT_ID>48230</NORAD_CAT_ID><ELEMENT_SET_NO>999</ELEMENT_SET_NO><REV_AT_EPOCH>14454</REV_AT_EPOCH><BSTAR>.47914E-4</BSTAR><MEAN_MOTION_DOT>.31E-6</MEAN_MOTION_DOT><MEAN_MOTION_DDOT>0</MEAN_MOTION_DDOT></tleParameters></data></segment></body></omm>

</ndm>
